#!/usr/bin/ruby

require 'wx/metar'

metars = <<EOF
KLRU 291433Z AUTO 00000KT 10SM CLR 02/02 A3015 RMK AO2
KLRU 291553Z AUTO 22006G12KT 180V240 10SM R30/M0300VP5000FT VV040 06/04 A3016 RMK AO2
KLRU 291553Z AUTO VRB03KT M1/4SM R30/3000FT SCT090 BKN100 06/04 A3016
KGLD 272053Z AUTO 34034G40KT 1/4SM SN FG BKN003 OVC009 00/M01 A2934 RMK AO2 PK WND 34041/2025
KANW 282030Z AUTO 33034G48KT M1/4SM +SN OVC001 M07/M08 A2955
CYYQ 151100Z 34015G30KT 1/2SM -SN BLSN VV005 M05/M07 A2975 RMK S8 SLP002=
CYOW 160800Z 21004KT 8SM -TSRA BKN020 OVC100 20/18 A2966 RMK SC5AC3 CB EMBDD LTGCG SE SLP044=
EOF

metars.each_line do |m|
  puts WX::METAR.parse(m).to_s
  puts
end

